LUR-1                   
1 60506U 24149AQ  26068.79566301  .00009121  00000+0  32985-3 0  9998
2 60506  97.3790 148.4255 0002777 309.1571  50.9421 15.28658648 86785
STARLINK-34774          
1 66485U 25263A   26068.17606973  .00031101  00000+0  11356-2 0  9991
2 66485  43.0043 353.3213 0001820 252.6515 107.4138 15.27561475 18828
